ONEWEB-0601             
1 54665U 22166Z   25047.82021269  .00000092  00000+0  19141-3 0  9990
2 54665  87.9357 340.7291 0001391  75.4609 284.6679 13.21828192107588
ONEWEB-0603             
1 54667U 22166AB  25048.16873177  .00000022  00000+0  21403-4 0  9991
2 54667  87.9331 340.6366 0001468  80.8246 279.3053 13.21825735107864
ONEWEB-0604             
1 54668U 22166AC  25047.85332545  .00000124  00000+0  26814-3 0  9999
2 54668  87.9351 340.6922 0001554  86.6609 273.4703 13.21828404107322
ONEWEB-0605             
1 54669U 22166AD  25047.84702351  .00000076  00000+0  15295-3 0  9992
2 54669  87.9351 340.7247 0001241  59.3229 300.8027 13.21828455107399
ONEWEB-0606             
1 54670U 22166AE  25048.17187577  .00000022  00000+0  22242-4 0  9990
2 54670  87.9356 340.6641 0001954  77.4527 282.6825 13.21828600107953
